{
"type": "FeatureCollection",
"name": "catchments_l10",
"crs": { "type": "name", "properties": { "name": "urn:ogc:def:crs:OGC:1.3:CRS84" } },
"features": [
{ "type": "Feature", "properties": { "HYBAS_ID": 4100830500, "NEXT_DOWN": 4100830790, "NEXT_SINK": 4100025450, "MAIN_BAS": 4100025450, "DIST_SINK": 1363.5, "DIST_MAIN": 1363.5, "SUB_AREA": 155.7, "UP_AREA": 476.0, "PFAF_ID": 4524369201, "ENDO": 0, "COAST": 0, "ORDER": 4, "SORT": 69448 }, "geometry": { "type": "MultiPolygon", "coordinates": [ [ [ [ 83.583333333333371, 27.98333333333337 ], [ 83.584703314745397, 27.98333333333337 ], [ 83.5850739, 27.9811562 ], [ 83.5845675, 27.9791134 ], [ 83.583333920162062, 27.9791557196646 ], [ 83.583333333333371, 27.9791666666667 ], [ 83.583333333333371, 27.98333333333337 ] ] ] ] } },
{ "type": "Feature", "properties": { "HYBAS_ID": 4100829520, "NEXT_DOWN": 4100830350, "NEXT_SINK": 4100025450, "MAIN_BAS": 4100025450, "DIST_SINK": 1368.2, "DIST_MAIN": 1368.2, "SUB_AREA": 404.9, "UP_AREA": 6796.0, "PFAF_ID": 4524369303, "ENDO": 0, "COAST": 0, "ORDER": 3, "SORT": 69473 }, "geometry": { "type": "MultiPolygon", "coordinates": [ [ [ [ 83.6041666666667, 28.0125 ], [ 83.603267076280417, 28.008994547526076 ], [ 83.588399590386317, 28.007672119140661 ], [ 83.586612616644999, 28.000708516438838 ], [ 83.576956176757847, 27.99943271213111 ], [ 83.573043823242216, 27.996400621202291 ], [ 83.570833333333368, 27.995833333333369 ], [ 83.569982571072089, 27.999149068196651 ], [ 83.564456176757844, 28.000567287868957 ], [ 83.560543823242227, 28.003599378797777 ], [ 83.551956176757841, 28.004733954535624 ], [ 83.539710489908884, 28.016099378797779 ], [ 83.530054050021732, 28.017375183105504 ], [ 83.529166666666697, 28.020833333333368 ], [ 83.528315904405417, 28.02414906819665 ], [ 83.521684095594651, 28.025850931803419 ], [ 83.520266045464439, 28.031377156575555 ], [ 83.515706719292567, 28.036844041612447 ], [ 83.500899590386325, 28.038161214192744 ], [ 83.49943271213111, 28.043877156575554 ], [ 83.495437282986146, 28.049032253689273 ], [ 83.489456176757841, 28.050567287868958 ], [ 83.485543823242224, 28.053599378797777 ], [ 83.476956176757852, 28.054733954535624 ], [ 83.471801079644138, 28.058729214138491 ], [ 83.470266045464442, 28.06471048990889 ], [ 83.467233954535629, 28.068622843424514 ], [ 83.466099378797779, 28.073043823242223 ], [ 83.462103949652814, 28.078198920355938 ], [ 83.458333333333371, 28.079166666666701 ], [ 83.458900621202289, 28.081377156575542 ], [ 83.461932712131116, 28.085289510091165 ], [ 83.463208346896735, 28.094945949978317 ], [ 83.468877156575559, 28.096400621202278 ], [ 83.486356516731632, 28.113132305975839 ], [ 83.4911368, 28.1138324 ], [ 83.4931, 28.1152818 ], [ 83.497694443748159, 28.116832186097195 ], [ 83.503267076280423, 28.117327880859396 ], [ 83.505017428927985, 28.124149237738735 ], [ 83.508333333333368, 28.125 ], [ 83.508403759577519, 28.126313767114944 ], [ 83.5101088, 28.1263448 ], [ 83.5122979, 28.1253093 ], [ 83.5151993, 28.1223061 ], [ 83.5209152, 28.120069 ], [ 83.524112, 28.1207891 ], [ 83.5295847, 28.1181383 ], [ 83.5315156, 28.1164745 ], [ 83.5322994, 28.1166231 ], [ 83.5388983, 28.1206066 ], [ 83.544506, 28.1210099 ], [ 83.5484529, 28.1198637 ], [ 83.5514061, 28.1179109 ], [ 83.5527786, 28.1176887 ], [ 83.5533275, 28.1175343 ], [ 83.5540523, 28.1175096 ], [ 83.5542958, 28.1171496 ], [ 83.5544995, 28.1165006 ], [ 83.5544725, 28.1162312 ], [ 83.5542716, 28.1159665 ], [ 83.5540155, 28.1157654 ], [ 83.554241, 28.1149136 ], [ 83.553939, 28.1137091 ], [ 83.5540944, 28.1131942 ], [ 83.5545006, 28.1129398 ], [ 83.5547368, 28.1123465 ], [ 83.554832, 28.1116416 ], [ 83.5543573, 28.1100613 ], [ 83.5545856, 28.1097163 ], [ 83.5552068, 28.1094424 ], [ 83.5552641, 28.1089639 ], [ 83.5549218, 28.1084967 ], [ 83.5551275, 28.1076806 ], [ 83.5550401, 28.1065749 ], [ 83.5552988, 28.1061531 ], [ 83.5570076, 28.1060894 ], [ 83.5578921, 28.1056542 ], [ 83.5581207, 28.1049059 ], [ 83.5585419, 28.1046405 ], [ 83.5598295, 28.1047573 ], [ 83.5605924, 28.1042301 ], [ 83.5612193, 28.1034464 ], [ 83.5620832, 28.1030039 ], [ 83.5626453, 28.102369 ], [ 83.5629461, 28.1018648 ], [ 83.5638908, 28.1014932 ], [ 83.564336, 28.1015569 ], [ 83.5649207, 28.1012142 ], [ 83.5648294, 28.100315 ], [ 83.564685, 28.0997471 ], [ 83.5651362, 28.0993543 ], [ 83.5650531, 28.0990617 ], [ 83.5637103, 28.09764 ], [ 83.562904, 28.096812 ], [ 83.5630965, 28.0953842 ], [ 83.5621709, 28.095183 ], [ 83.5621579, 28.0942059 ], [ 83.562424, 28.0939066 ], [ 83.562191, 28.0930434 ], [ 83.5639166, 28.0914798 ], [ 83.5650407, 28.0906128 ], [ 83.5661753, 28.0904106 ], [ 83.5674178, 28.0895507 ], [ 83.5683392, 28.0896482 ], [ 83.5691009, 28.0889166 ], [ 83.5692913, 28.0888354 ], [ 83.5702802, 28.0889654 ], [ 83.5706142, 28.0892316 ], [ 83.5721598, 28.089193 ], [ 83.5732901, 28.088857 ], [ 83.5737078, 28.0882338 ], [ 83.5742262, 28.088021 ], [ 83.5746778, 28.0878173 ], [ 83.5748011, 28.0874535 ], [ 83.5754985, 28.0872968 ], [ 83.5756399, 28.0864973 ], [ 83.5754511, 28.0831177 ], [ 83.5777315, 28.0797094 ], [ 83.5782976, 28.0790122 ], [ 83.5793009, 28.078652 ], [ 83.5805045, 28.0773946 ], [ 83.57932, 28.0765853 ], [ 83.5773491, 28.0759851 ], [ 83.573108, 28.0742471 ], [ 83.5718999, 28.0731016 ], [ 83.5687296, 28.0674017 ], [ 83.5680976, 28.0654543 ], [ 83.5670194, 28.0644858 ], [ 83.5655774, 28.0644053 ], [ 83.5617666, 28.0649232 ], [ 83.5609694, 28.0641942 ], [ 83.5609276, 28.0631935 ], [ 83.5642846, 28.0579702 ], [ 83.5628114, 28.0557412 ], [ 83.5626696, 28.0552996 ], [ 83.5614994, 28.0516558 ], [ 83.5619751, 28.0494297 ], [ 83.5620026, 28.049301 ], [ 83.559765, 28.045779 ], [ 83.5593947, 28.0446397 ], [ 83.5592207, 28.0435923 ], [ 83.5598976, 28.0418915 ], [ 83.5626603, 28.0420667 ], [ 83.563937, 28.0412069 ], [ 83.5642996, 28.0392221 ], [ 83.5621313, 28.037259 ], [ 83.5616174, 28.0359295 ], [ 83.5627504, 28.0350223 ], [ 83.5691609, 28.0329067 ], [ 83.5723225, 28.0325739 ], [ 83.5753793, 28.0325619 ], [ 83.5771667, 28.0339701 ], [ 83.5786398, 28.0340847 ], [ 83.5806233, 28.0297598 ], [ 83.5835042, 28.0264507 ], [ 83.5846315, 28.0256598 ], [ 83.5853131, 28.0259601 ], [ 83.588256, 28.0263427 ], [ 83.5904286, 28.0257328 ], [ 83.5912723, 28.0211149 ], [ 83.5959411, 28.0216944 ], [ 83.5989366, 28.0155437 ], [ 83.6011124, 28.0139761 ], [ 83.6030908, 28.0138568 ], [ 83.6043435, 28.0130437 ], [ 83.604736512143404, 28.0125 ], [ 83.6041666666667, 28.0125 ] ] ] ] } },
{ "type": "Feature", "properties": { "HYBAS_ID": 4100827730, "NEXT_DOWN": 4100830780, "NEXT_SINK": 4100025450, "MAIN_BAS": 4100025450, "DIST_SINK": 1369.7, "DIST_MAIN": 1369.7, "SUB_AREA": 55.8, "UP_AREA": 1693.2, "PFAF_ID": 4524368030, "ENDO": 0, "COAST": 0, "ORDER": 4, "SORT": 69485 }, "geometry": { "type": "MultiPolygon", "coordinates": [ [ [ [ 83.323257785373301, 28.125353325737866 ], [ 83.339242214626765, 28.141313340928839 ], [ 83.344091118706629, 28.142019992404535 ], [ 83.349645657009575, 28.147546725802972 ], [ 83.35, 28.158333333333353 ], [ 83.360757785373295, 28.157980007595505 ], [ 83.364242214626771, 28.154519992404534 ], [ 83.370833333333366, 28.154166666666686 ], [ 83.371400621202284, 28.151956176757832 ], [ 83.37443271213111, 28.148043823242208 ], [ 83.375567287868961, 28.143622843424499 ], [ 83.379733954535624, 28.138246663411479 ], [ 83.378565809461833, 28.105172390408008 ], [ 83.373043823242227, 28.100567287868945 ], [ 83.367249552408893, 28.099080403645853 ], [ 83.358900621202295, 28.089710489908875 ], [ 83.357766045464444, 28.085289510091165 ], [ 83.354733954535618, 28.081377156575542 ], [ 83.353458319769999, 28.071720716688386 ], [ 83.35, 28.070833333333368 ], [ 83.318408881293436, 28.071186659071216 ], [ 83.314924452039961, 28.074646674262187 ], [ 83.294117228190132, 28.075353325737883 ], [ 83.283691067165833, 28.06495513916019 ], [ 83.28333333333336, 28.0625 ], [ 83.275899590386317, 28.063161214192743 ], [ 83.275, 28.066666666666684 ], [ 83.275529649522596, 28.068914794921895 ], [ 83.278637017144135, 28.07275187174481 ], [ 83.279696316189273, 28.085581461588561 ], [ 83.286970350477461, 28.093585205078146 ], [ 83.288029649522599, 28.09808146158856 ], [ 83.292612711588575, 28.103408135308179 ], [ 83.298081461588581, 28.104696316189255 ], [ 83.301918538411485, 28.107803683810783 ], [ 83.31079678005645, 28.108889092339428 ], [ 83.317196316189268, 28.115514797634567 ], [ 83.315780300564271, 28.120060899522588 ], [ 83.3125, 28.120833333333351 ], [ 83.3125, 28.125 ], [ 83.320833333333368, 28.125 ], [ 83.323257785373301, 28.125353325737866 ] ] ] ] } },
{ "type": "Feature", "properties": { "HYBAS_ID": 4100827890, "NEXT_DOWN": 4100830780, "NEXT_SINK": 4100025450, "MAIN_BAS": 4100025450, "DIST_SINK": 1369.7, "DIST_MAIN": 1369.7, "SUB_AREA": 132.1, "UP_AREA": 132.1, "PFAF_ID": 4524368020, "ENDO": 0, "COAST": 0, "ORDER": 5, "SORT": 69484 }, "geometry": { "type": "MultiPolygon", "coordinates": [ [ [ [ 83.508333333333368, 28.125 ], [ 83.505017428927985, 28.124149237738735 ], [ 83.503267076280423, 28.117327880859396 ], [ 83.497694443748159, 28.116832186097195 ], [ 83.499597, 28.1174742 ], [ 83.5006749, 28.1197012 ], [ 83.5039064, 28.1228667 ], [ 83.5046535, 28.1243899 ], [ 83.5062518, 28.1262746 ], [ 83.508403759577519, 28.126313767114944 ], [ 83.508333333333368, 28.125 ] ] ], [ [ [ 83.468877156575559, 28.096400621202278 ], [ 83.463208346896735, 28.094945949978317 ], [ 83.461932712131116, 28.085289510091165 ], [ 83.458900621202289, 28.081377156575542 ], [ 83.458333333333371, 28.079166666666701 ], [ 83.447575547960099, 28.079519992404549 ], [ 83.444091118706638, 28.082980007595523 ], [ 83.42328694661461, 28.083686659071216 ], [ 83.419091118706632, 28.079519992404549 ], [ 83.397575547960102, 28.078813340928853 ], [ 83.394091118706626, 28.075353325737883 ], [ 83.389242214626762, 28.074646674262187 ], [ 83.385757785373301, 28.071186659071216 ], [ 83.3625, 28.070833333333354 ], [ 83.355066257052982, 28.070172119140661 ], [ 83.3541666666667, 28.066666666666702 ], [ 83.350850762261317, 28.067517598470086 ], [ 83.35, 28.070833333333368 ], [ 83.353458319769999, 28.071720716688386 ], [ 83.354733954535618, 28.081377156575542 ], [ 83.357766045464444, 28.085289510091165 ], [ 83.358900621202295, 28.089710489908875 ], [ 83.367249552408893, 28.099080403645853 ], [ 83.373043823242227, 28.100567287868945 ], [ 83.378565809461833, 28.105172390408008 ], [ 83.379733954535624, 28.138246663411479 ], [ 83.375567287868961, 28.143622843424499 ], [ 83.37443271213111, 28.148043823242208 ], [ 83.371400621202284, 28.151956176757832 ], [ 83.370833333333366, 28.154166666666686 ], [ 83.374149237738749, 28.15501742892797 ], [ 83.375899590386311, 28.161838785807312 ], [ 83.390767076280412, 28.16316121419273 ], [ 83.390879764656191, 28.163600375768752 ], [ 83.3924104, 28.1620433 ], [ 83.3940237, 28.1601475 ], [ 83.3958348, 28.1545754 ], [ 83.3988664, 28.1525515 ], [ 83.3995936, 28.1506436 ], [ 83.4019874, 28.1501734 ], [ 83.4063017, 28.148581 ], [ 83.4063896, 28.1465655 ], [ 83.4075572, 28.1453421 ], [ 83.4100384, 28.144997 ], [ 83.4105909, 28.1445447 ], [ 83.4105784, 28.143461 ], [ 83.4112054, 28.1412934 ], [ 83.4137376, 28.1376012 ], [ 83.4153567, 28.1373121 ], [ 83.4174249, 28.137105 ], [ 83.4184666, 28.1368709 ], [ 83.4184715, 28.1347745 ], [ 83.4189951, 28.1343818 ], [ 83.4191143, 28.1336713 ], [ 83.4192974, 28.1329733 ], [ 83.4191393, 28.1324547 ], [ 83.41934, 28.1320068 ], [ 83.4197852, 28.1320372 ], [ 83.4199012, 28.1315727 ], [ 83.4196943, 28.1312685 ], [ 83.419873, 28.1304114 ], [ 83.4194717, 28.1298888 ], [ 83.4191984, 28.1293188 ], [ 83.4192836, 28.1283237 ], [ 83.4199545, 28.1280777 ], [ 83.4213341, 28.1271265 ], [ 83.4223531, 28.1263992 ], [ 83.4223625, 28.1259568 ], [ 83.4227513, 28.1255531 ], [ 83.4230499, 28.1254234 ], [ 83.4230303, 28.1257743 ], [ 83.4232796, 28.1259906 ], [ 83.4238151, 28.1260073 ], [ 83.4246404, 28.1258136 ], [ 83.4259162, 28.1259051 ], [ 83.4261673, 28.1255869 ], [ 83.4263617, 28.1253988 ], [ 83.4268419, 28.1254949 ], [ 83.4271399, 28.1257607 ], [ 83.4272271, 28.1265021 ], [ 83.4275161, 28.1272373 ], [ 83.4297736, 28.1276575 ], [ 83.4306841, 28.129019 ], [ 83.4324148, 28.1297711 ], [ 83.4343638, 28.129759 ], [ 83.436245, 28.1292281 ], [ 83.4371982, 28.1300687 ], [ 83.4375493, 28.1308871 ], [ 83.4389805, 28.1310756 ], [ 83.4395898, 28.1305569 ], [ 83.4401086, 28.1296927 ], [ 83.4404249, 28.1295344 ], [ 83.4410619, 28.1292157 ], [ 83.441727, 28.1282889 ], [ 83.4427824, 28.127542 ], [ 83.4429376, 28.1263493 ], [ 83.4440633, 28.1256479 ], [ 83.444837, 28.1250469 ], [ 83.4458999, 28.1252266 ], [ 83.4472108, 28.125814 ], [ 83.4488054, 28.1260247 ], [ 83.4497337, 28.1263282 ], [ 83.4505912, 28.1263579 ], [ 83.4512015, 28.1267075 ], [ 83.4516216, 28.1266909 ], [ 83.4522049, 28.1271878 ], [ 83.4523379, 28.1285565 ], [ 83.4533932, 28.1292916 ], [ 83.4542312, 28.1305422 ], [ 83.4550959, 28.1305774 ], [ 83.4555437, 28.1309215 ], [ 83.4557743, 28.1314846 ], [ 83.4565547, 28.1317427 ], [ 83.4573484, 28.1324075 ], [ 83.4578348, 28.1324984 ], [ 83.4584067, 28.1323235 ], [ 83.4590911, 28.1318802 ], [ 83.4596259, 28.1314214 ], [ 83.4604913, 28.130238 ], [ 83.4619085, 28.1299781 ], [ 83.4626608, 28.1300716 ], [ 83.4636957, 28.1305145 ], [ 83.4645834, 28.1306397 ], [ 83.4656412, 28.1310089 ], [ 83.4660238, 28.1319927 ], [ 83.4670534, 28.1325091 ], [ 83.4679426, 28.1321591 ], [ 83.4702377, 28.1322476 ], [ 83.4711908, 28.1317942 ], [ 83.4735243, 28.1323682 ], [ 83.4745276, 28.1314779 ], [ 83.4754698, 28.1314099 ], [ 83.4759072, 28.1313784 ], [ 83.4764904, 28.1311627 ], [ 83.4770924, 28.130383 ], [ 83.4779914, 28.1303012 ], [ 83.4781396, 28.1289949 ], [ 83.4775, 28.1276179 ], [ 83.4771162, 28.1250335 ], [ 83.4762997, 28.1221835 ], [ 83.4740975, 28.1193925 ], [ 83.4751009, 28.1183834 ], [ 83.476734, 28.117556 ], [ 83.479479, 28.1173108 ], [ 83.4815118, 28.1176786 ], [ 83.4833186, 28.1167592 ], [ 83.4851602, 28.1129571 ], [ 83.486356516731632, 28.113132305975839 ], [ 83.468877156575559, 28.096400621202278 ] ] ] ] } },
{ "type": "Feature", "properties": { "HYBAS_ID": 4100826750, "NEXT_DOWN": 4100826520, "NEXT_SINK": 4100025450, "MAIN_BAS": 4100025450, "DIST_SINK": 1387.3, "DIST_MAIN": 1387.3, "SUB_AREA": 145.8, "UP_AREA": 145.8, "PFAF_ID": 4524368043, "ENDO": 0, "COAST": 0, "ORDER": 5, "SORT": 69566 }, "geometry": { "type": "MultiPolygon", "coordinates": [ [ [ [ 83.143622843424509, 28.063067287868957 ], [ 83.139583333333363, 28.066197882758281 ], [ 83.136412739914306, 28.063740692819433 ], [ 83.1336339, 28.0671949 ], [ 83.1291669, 28.0676147 ], [ 83.124683, 28.0705455 ], [ 83.1268817, 28.0775564 ], [ 83.1251098, 28.0832739 ], [ 83.1247964, 28.0842851 ], [ 83.1229301, 28.0848529 ], [ 83.1214932, 28.0833019 ], [ 83.1192079, 28.0831416 ], [ 83.1157845, 28.0813381 ], [ 83.1096781, 28.0816489 ], [ 83.1021802, 28.0777255 ], [ 83.0994939, 28.0804775 ], [ 83.0965279, 28.0816812 ], [ 83.0970163, 28.0847167 ], [ 83.0961696, 28.0872857 ], [ 83.0966239, 28.0878323 ], [ 83.0966239, 28.089891 ], [ 83.0977598, 28.0914578 ], [ 83.0999488, 28.0934072 ], [ 83.0984574, 28.0951398 ], [ 83.0905956, 28.0977585 ], [ 83.0854287, 28.096878 ], [ 83.07547765596351, 28.092072900701979 ], [ 83.07556728786895, 28.092654758029532 ], [ 83.066543463717252, 28.102377448770671 ], [ 83.0663623, 28.1053151 ], [ 83.0703095, 28.1082256 ], [ 83.0699869, 28.1087438 ], [ 83.0685579, 28.1094454 ], [ 83.067745, 28.1095848 ], [ 83.0672563, 28.1092874 ], [ 83.0664468, 28.1089602 ], [ 83.0660176, 28.1088372 ], [ 83.0653739, 28.1089602 ], [ 83.0649447, 28.1094712 ], [ 83.0645692, 28.1097646 ], [ 83.0641293, 28.1099444 ], [ 83.0634552, 28.1099369 ], [ 83.0627882, 28.1095942 ], [ 83.0620528476217, 28.108766876119173 ], [ 83.06193271213111, 28.109079996744811 ], [ 83.066099378797773, 28.114456176757834 ], [ 83.067233954535624, 28.11887715657554 ], [ 83.074432712131113, 28.126956176757833 ], [ 83.07556728786895, 28.138437228732659 ], [ 83.067233954535624, 28.147789510091165 ], [ 83.066099378797773, 28.150746663411478 ], [ 83.070266045464436, 28.156122843424498 ], [ 83.071400621202287, 28.159079996744811 ], [ 83.067233954535624, 28.164456176757831 ], [ 83.066099378797773, 28.173043823242207 ], [ 83.063067287868961, 28.176956176757834 ], [ 83.06193271213111, 28.184079996744813 ], [ 83.066099378797773, 28.189456176757833 ], [ 83.067233954535624, 28.192413330078146 ], [ 83.062103949652808, 28.199032253689257 ], [ 83.055017428927982, 28.200850762261304 ], [ 83.054166666666703, 28.204166666666687 ], [ 83.057482571072086, 28.205017428927974 ], [ 83.059184095594645, 28.211649237738737 ], [ 83.066005452473988, 28.213399590386306 ], [ 83.067321438259583, 28.228193834092902 ], [ 83.074777370823284, 28.234956496654725 ], [ 83.0757118, 28.2342744 ], [ 83.076055, 28.2332213 ], [ 83.0778574, 28.2338296 ], [ 83.0796741, 28.23696 ], [ 83.079737100069366, 28.237180092611776 ], [ 83.083333333333371, 28.2375 ], [ 83.083333333333371, 28.233333333333356 ], [ 83.085757785373289, 28.232980007595508 ], [ 83.089242214626765, 28.229519992404533 ], [ 83.091666666666697, 28.229166666666686 ], [ 83.091313340928849, 28.218408881293424 ], [ 83.087853325737882, 28.214924452039952 ], [ 83.0875, 28.2125 ], [ 83.0875, 28.2 ], [ 83.088117472330765, 28.197839694552972 ], [ 83.091049194335966, 28.193826972113737 ], [ 83.092401801215303, 28.179969278971374 ], [ 83.103835720486146, 28.178305053710957 ], [ 83.107715861002632, 28.172993638780401 ], [ 83.108950805664094, 28.168673027886307 ], [ 83.116049194335972, 28.160493638780402 ], [ 83.117284138997434, 28.156173027886304 ], [ 83.125617472330759, 28.146570163302972 ], [ 83.124382527669297, 28.143673027886305 ], [ 83.121390109592042, 28.139576890733526 ], [ 83.128549194335974, 28.131326972113737 ], [ 83.130138481987885, 28.125768364800368 ], [ 83.140694851345515, 28.124231635199671 ], [ 83.142825317382844, 28.116780598958353 ], [ 83.147839694552985, 28.11311747233075 ], [ 83.156326972113746, 28.111882527669291 ], [ 83.160339694552988, 28.108950805664083 ], [ 83.164660305447086, 28.107715861002625 ], [ 83.170364040798646, 28.103549194335958 ], [ 83.19483371310767, 28.104837375217034 ], [ 83.196991984049504, 28.112386067708353 ], [ 83.203697374131977, 28.117284138997416 ], [ 83.219842190212702, 28.115966118706616 ], [ 83.22083333333336, 28.1125 ], [ 83.221970621744816, 28.10806884765627 ], [ 83.226956176757838, 28.111932712131097 ], [ 83.2291666666667, 28.1125 ], [ 83.233333333333363, 28.1125 ], [ 83.233900621202295, 28.106122843424497 ], [ 83.238067287868958, 28.100746663411478 ], [ 83.236932712131107, 28.097789510091165 ], [ 83.233900621202295, 28.093877156575541 ], [ 83.232482571072083, 28.088350762261303 ], [ 83.225708346896738, 28.086612616644985 ], [ 83.224295722113752, 28.075919596354186 ], [ 83.218877156575559, 28.071400621202276 ], [ 83.212235514322941, 28.069696044921894 ], [ 83.216099378797779, 28.064710489908872 ], [ 83.216573015684958, 28.059386109193301 ], [ 83.2154688, 28.059447 ], [ 83.2150942, 28.0606355 ], [ 83.2110852, 28.0663752 ], [ 83.2104336, 28.066884 ], [ 83.2049951, 28.067371 ], [ 83.2026995, 28.0693029 ], [ 83.2010666, 28.0729625 ], [ 83.1955786, 28.0748107 ], [ 83.1954167, 28.0781205 ], [ 83.1947635, 28.0813188 ], [ 83.1925254, 28.0836174 ], [ 83.1860764, 28.0840273 ], [ 83.1840843, 28.0849781 ], [ 83.1837251, 28.087139 ], [ 83.1820961, 28.087575 ], [ 83.1790244, 28.0844661 ], [ 83.1749695, 28.0805093 ], [ 83.1708007, 28.0791624 ], [ 83.1703897, 28.0751215 ], [ 83.16352, 28.0692154 ], [ 83.1583531, 28.0656924 ], [ 83.156329725572348, 28.061936885488109 ], [ 83.143622843424509, 28.063067287868957 ] ] ] ] } },
{ "type": "Feature", "properties": { "HYBAS_ID": 4100826520, "NEXT_DOWN": 4100827730, "NEXT_SINK": 4100025450, "MAIN_BAS": 4100025450, "DIST_SINK": 1377.0, "DIST_MAIN": 1377.0, "SUB_AREA": 133.3, "UP_AREA": 403.9, "PFAF_ID": 4524368041, "ENDO": 0, "COAST": 0, "ORDER": 5, "SORT": 69520 }, "geometry": { "type": "MultiPolygon", "coordinates": [ [ [ [ 83.222575547960105, 28.062146674262188 ], [ 83.219195279718136, 28.058790090266367 ], [ 83.2191265, 28.0592453 ], [ 83.216573015684958, 28.059386109193301 ], [ 83.216099378797779, 28.064710489908872 ], [ 83.212235514322941, 28.069696044921894 ], [ 83.218877156575559, 28.071400621202276 ], [ 83.224295722113752, 28.075919596354186 ], [ 83.225708346896738, 28.086612616644985 ], [ 83.232482571072083, 28.088350762261303 ], [ 83.233900621202295, 28.093877156575541 ], [ 83.236932712131107, 28.097789510091165 ], [ 83.238067287868958, 28.100746663411478 ], [ 83.233900621202295, 28.106122843424497 ], [ 83.233333333333363, 28.1125 ], [ 83.2291666666667, 28.1125 ], [ 83.226956176757838, 28.111932712131097 ], [ 83.221970621744816, 28.10806884765627 ], [ 83.22083333333336, 28.1125 ], [ 83.223043823242222, 28.113067287868944 ], [ 83.226956176757838, 28.116099378797763 ], [ 83.232482571072083, 28.117517428927972 ], [ 83.233333333333363, 28.120833333333351 ], [ 83.233900621202295, 28.127210489908876 ], [ 83.241204833984412, 28.135407850477449 ], [ 83.238067287868958, 28.139456176757832 ], [ 83.236932712131107, 28.152210489908875 ], [ 83.225567287868955, 28.164456176757831 ], [ 83.224432712131104, 28.177210489908873 ], [ 83.219913736979194, 28.18262905544707 ], [ 83.210289510091172, 28.183900621202277 ], [ 83.205134412977458, 28.187896050347241 ], [ 83.203315904405414, 28.194982571072067 ], [ 83.197789510091184, 28.196400621202276 ], [ 83.193877156575553, 28.199432712131099 ], [ 83.184220716688401, 28.200708346896722 ], [ 83.182766045464447, 28.206377156575542 ], [ 83.179733954535621, 28.210289510091165 ], [ 83.17835557725698, 28.215659925672764 ], [ 83.174253336588578, 28.217233954535612 ], [ 83.168877156575547, 28.213067287868945 ], [ 83.128420003255243, 28.211932712131098 ], [ 83.123043823242213, 28.216099378797765 ], [ 83.118622843424504, 28.217233954535612 ], [ 83.110543823242224, 28.224432712131097 ], [ 83.09583333333336, 28.225 ], [ 83.09498257107208, 28.228315904405402 ], [ 83.091666666666697, 28.229166666666686 ], [ 83.089242214626765, 28.229519992404533 ], [ 83.085757785373289, 28.232980007595508 ], [ 83.083333333333371, 28.233333333333356 ], [ 83.083333333333371, 28.2375 ], [ 83.083688015408015, 28.244118923611133 ], [ 83.086928580439732, 28.247350671701575 ], [ 83.0884212, 28.247617 ], [ 83.089144475677031, 28.249560537922953 ], [ 83.093408881293428, 28.25381334092884 ], [ 83.09583333333336, 28.254166666666688 ], [ 83.103188266102975, 28.254013330061909 ], [ 83.105834, 28.2516559 ], [ 83.1106713, 28.2524749 ], [ 83.1139107, 28.2530294 ], [ 83.115095917812923, 28.253765077774464 ], [ 83.123043823242213, 28.253599378797762 ], [ 83.126956176757844, 28.250567287868943 ], [ 83.131377156575553, 28.249432712131096 ], [ 83.135289510091184, 28.246400621202277 ], [ 83.139710489908879, 28.24526604546443 ], [ 83.145086669921909, 28.241099378797763 ], [ 83.160543823242222, 28.24223395453561 ], [ 83.164456176757838, 28.24526604546443 ], [ 83.173043823242224, 28.246400621202277 ], [ 83.178420003255241, 28.250567287868943 ], [ 83.18137715657555, 28.249432712131096 ], [ 83.189456176757844, 28.24223395453561 ], [ 83.207354397243961, 28.241033935546895 ], [ 83.211932712131102, 28.235543823242207 ], [ 83.213208346896735, 28.225887383355055 ], [ 83.218877156575559, 28.224432712131097 ], [ 83.222789510091175, 28.221400621202278 ], [ 83.227210489908884, 28.220266045464431 ], [ 83.235289510091178, 28.213067287868945 ], [ 83.241270616319483, 28.211532253689256 ], [ 83.245266045464447, 28.206377156575542 ], [ 83.246400621202284, 28.197789510091166 ], [ 83.257766045464436, 28.185543823242206 ], [ 83.259301079644132, 28.179562717013908 ], [ 83.264456176757847, 28.175567287868944 ], [ 83.266666666666694, 28.175 ], [ 83.267233954535627, 28.156122843424498 ], [ 83.274432712131102, 28.148043823242208 ], [ 83.275850762261314, 28.14251742892797 ], [ 83.281377156575559, 28.141099378797762 ], [ 83.289456176757838, 28.133900621202276 ], [ 83.293877156575547, 28.132766045464429 ], [ 83.297789510091178, 28.12973395453561 ], [ 83.302210489908887, 28.128599378797762 ], [ 83.306122843424518, 28.125567287868943 ], [ 83.3125, 28.125 ], [ 83.3125, 28.120833333333351 ], [ 83.315780300564271, 28.120060899522588 ], [ 83.317196316189268, 28.115514797634567 ], [ 83.31079678005645, 28.108889092339428 ], [ 83.301918538411485, 28.107803683810783 ], [ 83.298081461588581, 28.104696316189255 ], [ 83.292612711588575, 28.103408135308179 ], [ 83.288029649522599, 28.09808146158856 ], [ 83.286970350477461, 28.093585205078146 ], [ 83.279696316189273, 28.085581461588561 ], [ 83.278637017144135, 28.07275187174481 ], [ 83.275529649522596, 28.068914794921895 ], [ 83.275, 28.066666666666684 ], [ 83.264242214626762, 28.066313340928854 ], [ 83.260757785373301, 28.062853325737883 ], [ 83.247575547960096, 28.062146674262188 ], [ 83.244091118706635, 28.058686659071217 ], [ 83.231620279947947, 28.057980007595521 ], [ 83.227424452039969, 28.062146674262188 ], [ 83.225, 28.0625 ], [ 83.222575547960105, 28.062146674262188 ] ] ] ] } },
{ "type": "Feature", "properties": { "HYBAS_ID": 4100826330, "NEXT_DOWN": 4100827730, "NEXT_SINK": 4100025450, "MAIN_BAS": 4100025450, "DIST_SINK": 1376.8, "DIST_MAIN": 1376.8, "SUB_AREA": 38.9, "UP_AREA": 1233.4, "PFAF_ID": 4524368050, "ENDO": 0, "COAST": 0, "ORDER": 4, "SORT": 69519 }, "geometry": { "type": "MultiPolygon", "coordinates": [ [ [ [ 83.28333333333336, 28.1875 ], [ 83.284105767144126, 28.184219699435783 ], [ 83.288499281141526, 28.182851155598978 ], [ 83.294892713758713, 28.188029649522591 ], [ 83.306414794921906, 28.186970350477452 ], [ 83.318585205078165, 28.175529649522588 ], [ 83.327248128255235, 28.174470350477449 ], [ 83.331085205078153, 28.171362982855925 ], [ 83.335581461588575, 28.170303683810783 ], [ 83.347751871744819, 28.158862982855922 ], [ 83.35, 28.158333333333353 ], [ 83.349645657009575, 28.147546725802972 ], [ 83.344091118706629, 28.142019992404535 ], [ 83.339242214626765, 28.141313340928839 ], [ 83.323257785373301, 28.125353325737866 ], [ 83.320833333333368, 28.125 ], [ 83.3125, 28.125 ], [ 83.306122843424518, 28.125567287868943 ], [ 83.302210489908887, 28.128599378797762 ], [ 83.297789510091178, 28.12973395453561 ], [ 83.293877156575547, 28.132766045464429 ], [ 83.289456176757838, 28.133900621202276 ], [ 83.281377156575559, 28.141099378797762 ], [ 83.275850762261314, 28.14251742892797 ], [ 83.274432712131102, 28.148043823242208 ], [ 83.267233954535627, 28.156122843424498 ], [ 83.266666666666694, 28.175 ], [ 83.269091118706626, 28.175353325737866 ], [ 83.274644978841181, 28.180879720052104 ], [ 83.275, 28.1875 ], [ 83.279166666666697, 28.1875 ], [ 83.28333333333336, 28.1875 ] ] ] ] } },
{ "type": "Feature", "properties": { "HYBAS_ID": 4100826510, "NEXT_DOWN": 4100826520, "NEXT_SINK": 4100025450, "MAIN_BAS": 4100025450, "DIST_SINK": 1387.3, "DIST_MAIN": 1387.3, "SUB_AREA": 124.8, "UP_AREA": 124.9, "PFAF_ID": 4524368042, "ENDO": 0, "COAST": 0, "ORDER": 6, "SORT": 69567 }, "geometry": { "type": "MultiPolygon", "coordinates": [ [ [ [ 83.110543823242224, 28.224432712131097 ], [ 83.118622843424504, 28.217233954535612 ], [ 83.123043823242213, 28.216099378797765 ], [ 83.128420003255243, 28.211932712131098 ], [ 83.168877156575547, 28.213067287868945 ], [ 83.174253336588578, 28.217233954535612 ], [ 83.17835557725698, 28.215659925672764 ], [ 83.179733954535621, 28.210289510091165 ], [ 83.182766045464447, 28.206377156575542 ], [ 83.184220716688401, 28.200708346896722 ], [ 83.193877156575553, 28.199432712131099 ], [ 83.197789510091184, 28.196400621202276 ], [ 83.203315904405414, 28.194982571072067 ], [ 83.205134412977458, 28.187896050347241 ], [ 83.210289510091172, 28.183900621202277 ], [ 83.219913736979194, 28.18262905544707 ], [ 83.224432712131104, 28.177210489908873 ], [ 83.225567287868955, 28.164456176757831 ], [ 83.236932712131107, 28.152210489908875 ], [ 83.238067287868958, 28.139456176757832 ], [ 83.241204833984412, 28.135407850477449 ], [ 83.233900621202295, 28.127210489908876 ], [ 83.233333333333363, 28.120833333333351 ], [ 83.232482571072083, 28.117517428927972 ], [ 83.226956176757838, 28.116099378797763 ], [ 83.223043823242222, 28.113067287868944 ], [ 83.22083333333336, 28.1125 ], [ 83.219842190212702, 28.115966118706616 ], [ 83.203697374131977, 28.117284138997416 ], [ 83.196991984049504, 28.112386067708353 ], [ 83.19483371310767, 28.104837375217034 ], [ 83.170364040798646, 28.103549194335958 ], [ 83.164660305447086, 28.107715861002625 ], [ 83.160339694552988, 28.108950805664083 ], [ 83.156326972113746, 28.111882527669291 ], [ 83.147839694552985, 28.11311747233075 ], [ 83.142825317382844, 28.116780598958353 ], [ 83.140694851345515, 28.124231635199671 ], [ 83.130138481987885, 28.125768364800368 ], [ 83.128549194335974, 28.131326972113737 ], [ 83.121390109592042, 28.139576890733526 ], [ 83.124382527669297, 28.143673027886305 ], [ 83.125617472330759, 28.146570163302972 ], [ 83.117284138997434, 28.156173027886304 ], [ 83.116049194335972, 28.160493638780402 ], [ 83.108950805664094, 28.168673027886307 ], [ 83.107715861002632, 28.172993638780401 ], [ 83.103835720486146, 28.178305053710957 ], [ 83.092401801215303, 28.179969278971374 ], [ 83.091049194335966, 28.193826972113737 ], [ 83.088117472330765, 28.197839694552972 ], [ 83.0875, 28.2 ], [ 83.0875, 28.2125 ], [ 83.087853325737882, 28.214924452039952 ], [ 83.091313340928849, 28.218408881293424 ], [ 83.091666666666697, 28.229166666666686 ], [ 83.09498257107208, 28.228315904405402 ], [ 83.09583333333336, 28.225 ], [ 83.110543823242224, 28.224432712131097 ] ] ] ] } },
{ "type": "Feature", "properties": { "HYBAS_ID": 4100824270, "NEXT_DOWN": 4100826330, "NEXT_SINK": 4100025450, "MAIN_BAS": 4100025450, "DIST_SINK": 1385.5, "DIST_MAIN": 1385.5, "SUB_AREA": 140.5, "UP_AREA": 335.8, "PFAF_ID": 4524368061, "ENDO": 0, "COAST": 0, "ORDER": 5, "SORT": 69561 }, "geometry": { "type": "MultiPolygon", "coordinates": [ [ [ [ 83.364242214626771, 28.154519992404534 ], [ 83.360757785373295, 28.157980007595505 ], [ 83.35, 28.158333333333353 ], [ 83.347751871744819, 28.158862982855922 ], [ 83.335581461588575, 28.170303683810783 ], [ 83.331085205078153, 28.171362982855925 ], [ 83.327248128255235, 28.174470350477449 ], [ 83.318585205078165, 28.175529649522588 ], [ 83.306414794921906, 28.186970350477452 ], [ 83.294892713758713, 28.188029649522591 ], [ 83.288499281141526, 28.182851155598978 ], [ 83.284105767144126, 28.184219699435783 ], [ 83.28333333333336, 28.1875 ], [ 83.279166666666697, 28.1875 ], [ 83.279206014361819, 28.190254821593868 ], [ 83.2799328, 28.1896822 ], [ 83.2819048, 28.1903985 ], [ 83.2849362, 28.1907317 ], [ 83.2866327, 28.1922494 ], [ 83.288051, 28.1925208 ], [ 83.2896716, 28.1930329 ], [ 83.2918263, 28.1929691 ], [ 83.2934106, 28.1932165 ], [ 83.2947799, 28.192881 ], [ 83.2955924, 28.1931925 ], [ 83.29772, 28.1925143 ], [ 83.2985588, 28.1935767 ], [ 83.2998995, 28.1952341 ], [ 83.3013741, 28.1956229 ], [ 83.3020475, 28.1962166 ], [ 83.303493, 28.1965081 ], [ 83.3041908, 28.1968297 ], [ 83.3044213, 28.1974221 ], [ 83.3048566, 28.197676 ], [ 83.3066426, 28.1977719 ], [ 83.3074177, 28.1976937 ], [ 83.308672, 28.1968466 ], [ 83.3096002, 28.19569 ], [ 83.3099331, 28.1945954 ], [ 83.3114247, 28.1935516 ], [ 83.3124682, 28.1932752 ], [ 83.3131595, 28.1934557 ], [ 83.3139598, 28.1929761 ], [ 83.3143118, 28.1924176 ], [ 83.3159835, 28.1907425 ], [ 83.3161811, 28.1900704 ], [ 83.3168789, 28.1899857 ], [ 83.3176727, 28.1908885 ], [ 83.3188345, 28.1908235 ], [ 83.3200115, 28.1901453 ], [ 83.321297, 28.1899617 ], [ 83.3249817, 28.1903926 ], [ 83.3265842, 28.1889643 ], [ 83.3307149, 28.1891733 ], [ 83.3325012, 28.1896842 ], [ 83.3338007, 28.1895883 ], [ 83.3342169, 28.1897293 ], [ 83.3346138, 28.1902146 ], [ 83.3349659, 28.1902653 ], [ 83.3361822, 28.1902202 ], [ 83.3377378, 28.1897914 ], [ 83.3385172, 28.1903886 ], [ 83.340785, 28.1913543 ], [ 83.3419501, 28.1922345 ], [ 83.3426479, 28.1924094 ], [ 83.3439282, 28.1933122 ], [ 83.3447427, 28.1936482 ], [ 83.3455286, 28.1935322 ], [ 83.3465593, 28.1931824 ], [ 83.347161, 28.1934306 ], [ 83.3477116, 28.1941923 ], [ 83.3483133, 28.1945534 ], [ 83.350021, 28.1943857 ], [ 83.3511557, 28.1964887 ], [ 83.3517766, 28.1976283 ], [ 83.3527305, 28.198074 ], [ 83.3542258, 28.1976586 ], [ 83.3557014, 28.1974678 ], [ 83.3552815, 28.1962946 ], [ 83.3555669, 28.1956874 ], [ 83.3562346, 28.1955347 ], [ 83.3571721, 28.1956591 ], [ 83.3576368, 28.1952501 ], [ 83.3616405, 28.1925093 ], [ 83.362473, 28.1907508 ], [ 83.3643887, 28.1891569 ], [ 83.3638905, 28.1867417 ], [ 83.364972, 28.1851685 ], [ 83.3668783, 28.1843836 ], [ 83.3688724, 28.1835545 ], [ 83.3699341, 28.1826875 ], [ 83.3698381, 28.1813049 ], [ 83.3697425, 28.179139 ], [ 83.3703673, 28.1764216 ], [ 83.3740016, 28.1752192 ], [ 83.384018, 28.1635412 ], [ 83.3873776, 28.1656922 ], [ 83.3900224, 28.1673855 ], [ 83.3905864, 28.1666153 ], [ 83.3906216, 28.163863 ], [ 83.390879764656191, 28.163600375768752 ], [ 83.390767076280412, 28.16316121419273 ], [ 83.375899590386311, 28.161838785807312 ], [ 83.374149237738749, 28.15501742892797 ], [ 83.370833333333366, 28.154166666666686 ], [ 83.364242214626771, 28.154519992404534 ] ] ] ] } },
{ "type": "Feature", "properties": { "HYBAS_ID": 4100824260, "NEXT_DOWN": 4100826330, "NEXT_SINK": 4100025450, "MAIN_BAS": 4100025450, "DIST_SINK": 1385.5, "DIST_MAIN": 1385.5, "SUB_AREA": 240.8, "UP_AREA": 858.6, "PFAF_ID": 4524368070, "ENDO": 0, "COAST": 0, "ORDER": 4, "SORT": 69560 }, "geometry": { "type": "MultiPolygon", "coordinates": [ [ [ [ 83.275, 28.1875 ], [ 83.274644978841181, 28.180879720052104 ], [ 83.269091118706626, 28.175353325737866 ], [ 83.266666666666694, 28.175 ], [ 83.264456176757847, 28.175567287868944 ], [ 83.259301079644132, 28.179562717013908 ], [ 83.257766045464436, 28.185543823242206 ], [ 83.246400621202284, 28.197789510091166 ], [ 83.245266045464447, 28.206377156575542 ], [ 83.241270616319483, 28.211532253689256 ], [ 83.235289510091178, 28.213067287868945 ], [ 83.227210489908884, 28.220266045464431 ], [ 83.222789510091175, 28.221400621202278 ], [ 83.218877156575559, 28.224432712131097 ], [ 83.213208346896735, 28.225887383355055 ], [ 83.211932712131102, 28.235543823242207 ], [ 83.207354397243961, 28.241033935546895 ], [ 83.189456176757844, 28.24223395453561 ], [ 83.18137715657555, 28.249432712131096 ], [ 83.178420003255241, 28.250567287868943 ], [ 83.173043823242224, 28.246400621202277 ], [ 83.164456176757838, 28.24526604546443 ], [ 83.160543823242222, 28.24223395453561 ], [ 83.145086669921909, 28.241099378797763 ], [ 83.139710489908879, 28.24526604546443 ], [ 83.135289510091184, 28.246400621202277 ], [ 83.131377156575553, 28.249432712131096 ], [ 83.126956176757844, 28.250567287868943 ], [ 83.123043823242213, 28.253599378797762 ], [ 83.115095917812923, 28.253765077774464 ], [ 83.1200398, 28.2568338 ], [ 83.1247505, 28.2580181 ], [ 83.1266424, 28.2518053 ], [ 83.1276152, 28.250987 ], [ 83.1308316, 28.2498147 ], [ 83.1333114, 28.2505276 ], [ 83.1341579, 28.2507709 ], [ 83.1384289, 28.2553182 ], [ 83.1392422, 28.2569464 ], [ 83.1409811, 28.2581548 ], [ 83.1433013, 28.260654 ], [ 83.1438819, 28.2613751 ], [ 83.1473698, 28.2643157 ], [ 83.1506121, 28.266452 ], [ 83.1525161, 28.2679335 ], [ 83.1547632, 28.2703092 ], [ 83.1586086, 28.2680688 ], [ 83.1614738, 28.266864 ], [ 83.1625644, 28.2639172 ], [ 83.1655035, 28.2614262 ], [ 83.1678774, 28.2580701 ], [ 83.1691681, 28.2585403 ], [ 83.1699815, 28.2590206 ], [ 83.1701201, 28.2595538 ], [ 83.1712939, 28.2604208 ], [ 83.1723937, 28.2612349 ], [ 83.1728559, 28.2613977 ], [ 83.1733965, 28.2616989 ], [ 83.1739465, 28.2619838 ], [ 83.1741174, 28.2625944 ], [ 83.1740943, 28.2631154 ], [ 83.1743162, 28.2633596 ], [ 83.1750833, 28.2634166 ], [ 83.1759983, 28.2640434 ], [ 83.1765436, 28.264369 ], [ 83.1772229, 28.2643283 ], [ 83.178041, 28.2648581 ], [ 83.1784003, 28.2651702 ], [ 83.1787562, 28.2657441 ], [ 83.1787885, 28.2664747 ], [ 83.1791351, 28.2667942 ], [ 83.179588, 28.2667575 ], [ 83.1798926, 28.2670749 ], [ 83.1797689, 28.2673058 ], [ 83.1799907, 28.267669 ], [ 83.1804554, 28.268192 ], [ 83.1802254, 28.2686216 ], [ 83.1810361, 28.2688866 ], [ 83.1811962, 28.2693374 ], [ 83.1819841, 28.269258 ], [ 83.1824116, 28.2694371 ], [ 83.1834689, 28.2702078 ], [ 83.184044, 28.2704093 ], [ 83.1843119, 28.2709479 ], [ 83.1848678, 28.2708026 ], [ 83.1853574, 28.270476 ], [ 83.1864162, 28.2675405 ], [ 83.1868736, 28.2672757 ], [ 83.1880311, 28.267299 ], [ 83.1887754, 28.2656007 ], [ 83.1895858, 28.2643919 ], [ 83.1910824, 28.2644264 ], [ 83.1935339, 28.2633503 ], [ 83.194237, 28.2621023 ], [ 83.1956133, 28.26069 ], [ 83.1975075, 28.2593439 ], [ 83.2036442, 28.2562527 ], [ 83.204006, 28.2557318 ], [ 83.2050201, 28.2542714 ], [ 83.2054479, 28.2524791 ], [ 83.2062235, 28.2515997 ], [ 83.208158, 28.2512025 ], [ 83.2099618, 28.2502123 ], [ 83.2120008, 28.2486061 ], [ 83.2131968, 28.248347 ], [ 83.2138699, 28.2490206 ], [ 83.2146476, 28.24894 ], [ 83.2150165, 28.248502 ], [ 83.2158362, 28.2482921 ], [ 83.2160724, 28.2478519 ], [ 83.2156933, 28.2462112 ], [ 83.2155982, 28.2440402 ], [ 83.2167978, 28.243108 ], [ 83.2185689, 28.2426129 ], [ 83.2195651, 28.2417776 ], [ 83.2209244, 28.2397547 ], [ 83.2214974, 28.2387369 ], [ 83.2223554, 28.2367891 ], [ 83.2241696, 28.236303 ], [ 83.2250149, 28.2360694 ], [ 83.2257999, 28.2357321 ], [ 83.2261717, 28.2349581 ], [ 83.2258645, 28.2337778 ], [ 83.2255769, 28.2329889 ], [ 83.2257868, 28.2327035 ], [ 83.2274096, 28.2318603 ], [ 83.2278259, 28.231644 ], [ 83.2325836, 28.2269454 ], [ 83.2331972, 28.2261661 ], [ 83.2332168, 28.2245826 ], [ 83.2336293, 28.2219702 ], [ 83.2355931, 28.2212155 ], [ 83.237371, 28.2209672 ], [ 83.2380597, 28.2205637 ], [ 83.2386585, 28.2202129 ], [ 83.2403479, 28.2196226 ], [ 83.2413701, 28.2197062 ], [ 83.242107, 28.2195982 ], [ 83.242883, 28.2193607 ], [ 83.2434745, 28.2186697 ], [ 83.2437947, 28.2176734 ], [ 83.2441313, 28.2171753 ], [ 83.2447097, 28.2168384 ], [ 83.245458, 28.2170025 ], [ 83.246612, 28.2171686 ], [ 83.247779, 28.2164172 ], [ 83.2488788, 28.2159407 ], [ 83.2496228, 28.2151385 ], [ 83.2509676, 28.2147313 ], [ 83.2518228, 28.2141105 ], [ 83.2537508, 28.2115881 ], [ 83.2538619, 28.2100965 ], [ 83.2542148, 28.2066064 ], [ 83.2567636, 28.2047865 ], [ 83.258868, 28.2040262 ], [ 83.2589392, 28.202481 ], [ 83.2589493, 28.202218 ], [ 83.2589817, 28.2002102 ], [ 83.2593421, 28.1997867 ], [ 83.2616305, 28.1995366 ], [ 83.2651057, 28.1996669 ], [ 83.2669555, 28.1989195 ], [ 83.2689765, 28.1968829 ], [ 83.2708289, 28.1950416 ], [ 83.2709077, 28.1934759 ], [ 83.2704973, 28.192053 ], [ 83.2705532, 28.1913736 ], [ 83.2719764, 28.1907618 ], [ 83.2727196, 28.1899767 ], [ 83.273215, 28.1891894 ], [ 83.2733732, 28.1883408 ], [ 83.2730509, 28.1868064 ], [ 83.2763734, 28.1892308 ], [ 83.2775603, 28.1908816 ], [ 83.2782427, 28.1910138 ], [ 83.279206014361819, 28.190254821593868 ], [ 83.279166666666697, 28.1875 ], [ 83.275, 28.1875 ] ] ], [ [ [ 83.09583333333336, 28.254166666666688 ], [ 83.095901729289977, 28.256442620821474 ], [ 83.1013777, 28.2556266 ], [ 83.103188266102975, 28.254013330061909 ], [ 83.09583333333336, 28.254166666666688 ] ] ] ] } },
{ "type": "Feature", "properties": { "HYBAS_ID": 4101464760, "NEXT_DOWN": 4101464910, "NEXT_SINK": 4100025450, "MAIN_BAS": 4100025450, "DIST_SINK": 1319.3, "DIST_MAIN": 1319.3, "SUB_AREA": 146.4, "UP_AREA": 10259.2, "PFAF_ID": 4524367073, "ENDO": 0, "COAST": 0, "ORDER": 3, "SORT": 69240 }, "geometry": { "type": "MultiPolygon", "coordinates": [ [ [ [ 83.441666666666706, 27.9375 ], [ 83.443982768518381, 27.9375 ], [ 83.4432577, 27.9369201 ], [ 83.4421034, 27.936189 ], [ 83.441566306893691, 27.935627837554883 ], [ 83.441666666666706, 27.9375 ] ] ] ] } },
{ "type": "Feature", "properties": { "HYBAS_ID": 4100831730, "NEXT_DOWN": 4101464760, "NEXT_SINK": 4100025450, "MAIN_BAS": 4100025450, "DIST_SINK": 1344.9, "DIST_MAIN": 1344.9, "SUB_AREA": 267.1, "UP_AREA": 606.4, "PFAF_ID": 4524367081, "ENDO": 0, "COAST": 0, "ORDER": 4, "SORT": 69354 }, "geometry": { "type": "MultiPolygon", "coordinates": [ [ [ [ 83.2875, 27.941666666666702 ], [ 83.2916666666667, 27.941666666666702 ], [ 83.292881605360279, 27.93693271213111 ], [ 83.302210489908887, 27.938067287868957 ], [ 83.306122843424518, 27.941099378797777 ], [ 83.316666666666706, 27.941666666666702 ], [ 83.317233954535624, 27.943877156575557 ], [ 83.320266045464436, 27.94778951009118 ], [ 83.321400621202287, 27.960543823242222 ], [ 83.324432712131113, 27.964456176757846 ], [ 83.32556728786895, 27.973043823242222 ], [ 83.328599378797776, 27.976956176757845 ], [ 83.330066257052991, 27.982672119140659 ], [ 83.343877156575559, 27.983900621202292 ], [ 83.347789510091175, 27.986932712131111 ], [ 83.356377156575547, 27.988067287868958 ], [ 83.360289510091178, 27.991099378797777 ], [ 83.3625, 27.991666666666703 ], [ 83.364924452039958, 27.992019992404551 ], [ 83.368408881293433, 27.995480007595521 ], [ 83.373257785373298, 27.996186659071213 ], [ 83.37745361328129, 28.000353325737883 ], [ 83.381591118706623, 27.999646674262188 ], [ 83.389242214626762, 27.992019992404551 ], [ 83.395833333333371, 27.991666666666703 ], [ 83.396400621202289, 27.976956176757845 ], [ 83.399432712131116, 27.973043823242222 ], [ 83.400567287868952, 27.968622843424512 ], [ 83.403599378797779, 27.964710489908889 ], [ 83.405017428927991, 27.959184265136752 ], [ 83.410543823242222, 27.957766045464446 ], [ 83.414456176757852, 27.954733954535627 ], [ 83.428188408745697, 27.95351240370012 ], [ 83.441099378797773, 27.93971048990889 ], [ 83.441666666666706, 27.9375 ], [ 83.441566306893691, 27.935627837554883 ], [ 83.4400594, 27.9340534 ], [ 83.4404586, 27.9355071 ], [ 83.439459, 27.9362558 ], [ 83.4381591, 27.9358639 ], [ 83.4365557, 27.9352191 ], [ 83.4352291, 27.93508 ], [ 83.4342126, 27.9354114 ], [ 83.4334546, 27.9362285 ], [ 83.4332276, 27.9379602 ], [ 83.4327118, 27.9395462 ], [ 83.4303389, 27.9398196 ], [ 83.4272851, 27.9399837 ], [ 83.4246233, 27.9370852 ], [ 83.4245408, 27.9349524 ], [ 83.4227456, 27.9340774 ], [ 83.420641, 27.9328195 ], [ 83.4200158, 27.9316585 ], [ 83.4198663, 27.9313808 ], [ 83.4196299, 27.9309418 ], [ 83.4190943, 27.9305891 ], [ 83.4182304, 27.9303004 ], [ 83.4166174, 27.9310512 ], [ 83.4150079, 27.9309965 ], [ 83.4133779, 27.9313976 ], [ 83.4111494, 27.9308689 ], [ 83.4096638, 27.9311423 ], [ 83.4091479, 27.932382 ], [ 83.4073528, 27.9328924 ], [ 83.4065068, 27.9336581 ], [ 83.4050418, 27.9340409 ], [ 83.4020292, 27.9345878 ], [ 83.4016277, 27.9346149 ], [ 83.3993262, 27.9347701 ], [ 83.3984389, 27.9365931 ], [ 83.3988516, 27.9390904 ], [ 83.3983151, 27.9412232 ], [ 83.3979644, 27.942007 ], [ 83.3959629, 27.9429002 ], [ 83.3953471, 27.9433242 ], [ 83.3931567, 27.9448324 ], [ 83.392971, 27.9466552 ], [ 83.3927569, 27.9476003 ], [ 83.3924878, 27.9480452 ], [ 83.3905774, 27.9487149 ], [ 83.3879157, 27.950009 ], [ 83.3872584, 27.9521085 ], [ 83.3857079, 27.952342 ], [ 83.3847381, 27.9530711 ], [ 83.3822207, 27.9554223 ], [ 83.3798478, 27.9568075 ], [ 83.3785066, 27.9565159 ], [ 83.3783528, 27.9564628 ], [ 83.377021, 27.9558962 ], [ 83.3763401, 27.9563883 ], [ 83.3767528, 27.9573907 ], [ 83.3777638, 27.9573907 ], [ 83.3781352, 27.9580104 ], [ 83.3777845, 27.9591768 ], [ 83.3738021, 27.9578828 ], [ 83.3715118, 27.9580286 ], [ 83.3662708, 27.9546386 ], [ 83.3652431, 27.9542295 ], [ 83.3633408, 27.9534721 ], [ 83.3605139, 27.9518135 ], [ 83.3585537, 27.9523785 ], [ 83.3563046, 27.9524332 ], [ 83.3553967, 27.9527248 ], [ 83.3550666, 27.9539824 ], [ 83.3545714, 27.9542923 ], [ 83.3534365, 27.9531987 ], [ 83.3524401, 27.9525798 ], [ 83.3507335, 27.9521233 ], [ 83.3494954, 27.9512849 ], [ 83.3469987, 27.9503371 ], [ 83.3446878, 27.9505011 ], [ 83.3441306, 27.9496809 ], [ 83.3446157, 27.9490196 ], [ 83.3450798, 27.9483868 ], [ 83.3437068, 27.9454616 ], [ 83.3433259, 27.9446501 ], [ 83.3424799, 27.9409315 ], [ 83.3433053, 27.9384707 ], [ 83.3464004, 27.9372675 ], [ 83.346283, 27.9338417 ], [ 83.3462018, 27.9325398 ], [ 83.3455832, 27.9302438 ], [ 83.3449333, 27.9279496 ], [ 83.3438983, 27.9263479 ], [ 83.3392517, 27.9260438 ], [ 83.3387109, 27.9235241 ], [ 83.336867, 27.9225031 ], [ 83.3348222, 27.9227713 ], [ 83.3337202, 27.9229158 ], [ 83.3317042, 27.9219166 ], [ 83.3295638, 27.9213883 ], [ 83.3277159, 27.9209321 ], [ 83.326186, 27.9205545 ], [ 83.3256318, 27.9204177 ], [ 83.3200756, 27.9220469 ], [ 83.3177155, 27.9239585 ], [ 83.3152324, 27.9242843 ], [ 83.313465, 27.9252257 ], [ 83.312637, 27.9256667 ], [ 83.3104086, 27.9258451 ], [ 83.3090466, 27.9259541 ], [ 83.3083081, 27.927099 ], [ 83.3080017, 27.9281197 ], [ 83.306045, 27.9288279 ], [ 83.3008113, 27.9264325 ], [ 83.2995529, 27.9266036 ], [ 83.2962143, 27.9270574 ], [ 83.2949163, 27.9262013 ], [ 83.2935197, 27.9252801 ], [ 83.2928666, 27.9248494 ], [ 83.2908753, 27.9247938 ], [ 83.2869022, 27.9246828 ], [ 83.2845447, 27.9257243 ], [ 83.2815104, 27.9256974 ], [ 83.2803717, 27.9261729 ], [ 83.2797314, 27.9269781 ], [ 83.2796301, 27.9271055 ], [ 83.2797358, 27.9296364 ], [ 83.2788016, 27.9308278 ], [ 83.278651, 27.9320771 ], [ 83.2785096, 27.9339933 ], [ 83.2788712, 27.9348026 ], [ 83.2795704, 27.9363677 ], [ 83.2823758, 27.9367426 ], [ 83.2830359, 27.9402416 ], [ 83.283400602942777, 27.941301999719457 ], [ 83.2875, 27.941666666666702 ] ] ] ] } },
{ "type": "Feature", "properties": { "HYBAS_ID": 4100831610, "NEXT_DOWN": 4101464760, "NEXT_SINK": 4100025450, "MAIN_BAS": 4100025450, "DIST_SINK": 1345.0, "DIST_MAIN": 1345.0, "SUB_AREA": 33.1, "UP_AREA": 9506.4, "PFAF_ID": 4524367090, "ENDO": 0, "COAST": 0, "ORDER": 3, "SORT": 69355 }, "geometry": { "type": "MultiPolygon", "coordinates": [ [ [ [ 83.441666666666706, 27.9375 ], [ 83.441099378797773, 27.93971048990889 ], [ 83.428188408745697, 27.95351240370012 ], [ 83.414456176757852, 27.954733954535627 ], [ 83.410543823242222, 27.957766045464446 ], [ 83.405017428927991, 27.959184265136752 ], [ 83.403599378797779, 27.964710489908889 ], [ 83.400567287868952, 27.968622843424512 ], [ 83.399432712131116, 27.973043823242222 ], [ 83.396400621202289, 27.976956176757845 ], [ 83.395833333333371, 27.991666666666703 ], [ 83.402210489908882, 27.992233954535624 ], [ 83.406122843424512, 27.995266045464444 ], [ 83.414710489908884, 27.996400621202291 ], [ 83.418622843424515, 27.99943271213111 ], [ 83.421770562066001, 28.000567287868957 ], [ 83.431122843424518, 27.992233954535624 ], [ 83.435543823242227, 27.991099378797777 ], [ 83.440698920355942, 27.987104119194914 ], [ 83.442233954535624, 27.981122843424515 ], [ 83.450996229383719, 27.971462334526944 ], [ 83.469618394639795, 27.970266045464445 ], [ 83.47083333333336, 27.975 ], [ 83.475, 27.975 ], [ 83.475, 27.973845405338796 ], [ 83.474453, 27.973051 ], [ 83.4740862, 27.9719464 ], [ 83.4731275, 27.9709466 ], [ 83.4723497, 27.9696665 ], [ 83.471656, 27.9687328 ], [ 83.4704227, 27.9681298 ], [ 83.4694316, 27.9675074 ], [ 83.4684846, 27.9657859 ], [ 83.4678899, 27.965037 ], [ 83.4677468, 27.9648036 ], [ 83.4667227, 27.9638018 ], [ 83.4659298, 27.963082 ], [ 83.4655554, 27.9622748 ], [ 83.4650599, 27.9616426 ], [ 83.4648754, 27.9611882 ], [ 83.4644248, 27.9601458 ], [ 83.4645106, 27.958061 ], [ 83.464413, 27.9575966 ], [ 83.4641064, 27.9571091 ], [ 83.4638883, 27.9561277 ], [ 83.4637596, 27.9553885 ], [ 83.4634145, 27.9550643 ], [ 83.4622177, 27.9545878 ], [ 83.4606911, 27.9528866 ], [ 83.458996, 27.9520526 ], [ 83.4574531, 27.950742 ], [ 83.4551121, 27.9496074 ], [ 83.4528591, 27.9491525 ], [ 83.4505202, 27.9482806 ], [ 83.4481813, 27.9469348 ], [ 83.4465907, 27.9462311 ], [ 83.4450485, 27.9455131 ], [ 83.4441258, 27.9445653 ], [ 83.443804, 27.9437692 ], [ 83.4436537, 27.9432195 ], [ 83.4436108, 27.9428972 ], [ 83.4454562, 27.9402812 ], [ 83.4456931, 27.9388679 ], [ 83.443982768518381, 27.9375 ], [ 83.441666666666706, 27.9375 ] ] ] ] } },
{ "type": "Feature", "properties": { "HYBAS_ID": 4100830790, "NEXT_DOWN": 4100831610, "NEXT_SINK": 4100025450, "MAIN_BAS": 4100025450, "DIST_SINK": 1350.4, "DIST_MAIN": 1350.4, "SUB_AREA": 53.8, "UP_AREA": 7473.9, "PFAF_ID": 4524369100, "ENDO": 0, "COAST": 0, "ORDER": 3, "SORT": 69383 }, "geometry": { "type": "MultiPolygon", "coordinates": [ [ [ [ 83.475, 27.975 ], [ 83.475603908962711, 27.990663655598993 ], [ 83.481122843424515, 27.995266045464444 ], [ 83.511586507161496, 27.996440802680155 ], [ 83.513067287868964, 28.00221048990889 ], [ 83.524432712131116, 28.014456176757847 ], [ 83.525850762261314, 28.019982401529983 ], [ 83.529166666666697, 28.020833333333368 ], [ 83.530054050021732, 28.017375183105504 ], [ 83.539710489908884, 28.016099378797779 ], [ 83.551956176757841, 28.004733954535624 ], [ 83.560543823242227, 28.003599378797777 ], [ 83.564456176757844, 28.000567287868957 ], [ 83.569982571072089, 27.999149068196651 ], [ 83.570833333333368, 27.995833333333369 ], [ 83.571801079644132, 27.992062547471821 ], [ 83.576956176757847, 27.988067287868958 ], [ 83.582482571072077, 27.986649068196648 ], [ 83.583333333333371, 27.98333333333337 ], [ 83.583333333333371, 27.9791666666667 ], [ 83.583333920162062, 27.9791557196646 ], [ 83.5794256, 27.9792898 ], [ 83.578541, 27.9754904 ], [ 83.5766664, 27.9744276 ], [ 83.5734127, 27.9757166 ], [ 83.5713465, 27.976075 ], [ 83.5656709, 27.975431 ], [ 83.5633974, 27.9746644 ], [ 83.5563694, 27.973959 ], [ 83.5549283, 27.9763374 ], [ 83.5511023, 27.9769935 ], [ 83.5498448, 27.976789 ], [ 83.548424, 27.9757819 ], [ 83.5463528, 27.9711485 ], [ 83.5418424, 27.9716431 ], [ 83.5385476, 27.9693907 ], [ 83.5351702, 27.9686507 ], [ 83.5338183, 27.9681911 ], [ 83.5321747, 27.9658705 ], [ 83.531849, 27.9651024 ], [ 83.5311511, 27.9647191 ], [ 83.5289228, 27.9652801 ], [ 83.5279668, 27.9668361 ], [ 83.5250947, 27.9659169 ], [ 83.522778, 27.9639915 ], [ 83.5112266, 27.9673819 ], [ 83.51004, 27.9680075 ], [ 83.5096656, 27.968763 ], [ 83.5082341, 27.9710352 ], [ 83.5073383, 27.9715614 ], [ 83.5059198, 27.9724429 ], [ 83.5041156, 27.9736185 ], [ 83.5034016, 27.9749168 ], [ 83.5021682, 27.9766515 ], [ 83.498188, 27.9770795 ], [ 83.4973746, 27.9773612 ], [ 83.4894235, 27.9797694 ], [ 83.4862087, 27.981848 ], [ 83.4824771, 27.9812143 ], [ 83.4799798, 27.9774119 ], [ 83.4790395, 27.9761722 ], [ 83.4779993, 27.9748009 ], [ 83.4755881, 27.9746995 ], [ 83.475, 27.973845405338796 ], [ 83.475, 27.975 ] ] ] ] } },
{ "type": "Feature", "properties": { "HYBAS_ID": 4100831510, "NEXT_DOWN": 4100831730, "NEXT_SINK": 4100025450, "MAIN_BAS": 4100025450, "DIST_SINK": 1368.0, "DIST_MAIN": 1368.0, "SUB_AREA": 221.6, "UP_AREA": 221.6, "PFAF_ID": 4524367083, "ENDO": 0, "COAST": 0, "ORDER": 4, "SORT": 69472 }, "geometry": { "type": "MultiPolygon", "coordinates": [ [ [ [ 83.139583333333363, 28.066197882758281 ], [ 83.143622843424509, 28.063067287868957 ], [ 83.156329725572348, 28.061936885488109 ], [ 83.1559541, 28.0612397 ], [ 83.1501917, 28.0604075 ], [ 83.1479018, 28.0615992 ], [ 83.1373045, 28.0626322 ], [ 83.136412739914306, 28.063740692819433 ], [ 83.139583333333363, 28.066197882758281 ] ] ], [ [ [ 83.2875, 27.941666666666702 ], [ 83.283400602942777, 27.941301999719457 ], [ 83.2838733, 27.9426764 ], [ 83.2843755, 27.9430551 ], [ 83.2855344, 27.943929 ], [ 83.2875, 27.943701758366831 ], [ 83.2875, 27.941666666666702 ] ] ] ] } },
{ "type": "Feature", "properties": { "HYBAS_ID": 4100830350, "NEXT_DOWN": 4100830790, "NEXT_SINK": 4100025450, "MAIN_BAS": 4100025450, "DIST_SINK": 1363.7, "DIST_MAIN": 1363.7, "SUB_AREA": 10.7, "UP_AREA": 6944.1, "PFAF_ID": 4524369301, "ENDO": 0, "COAST": 0, "ORDER": 3, "SORT": 69449 }, "geometry": { "type": "MultiPolygon", "coordinates": [ [ [ [ 83.583333333333371, 27.98333333333337 ], [ 83.582482571072077, 27.986649068196648 ], [ 83.576956176757847, 27.988067287868958 ], [ 83.571801079644132, 27.992062547471821 ], [ 83.570833333333368, 27.995833333333369 ], [ 83.573043823242216, 27.996400621202291 ], [ 83.576956176757847, 27.99943271213111 ], [ 83.586612616644999, 28.000708516438838 ], [ 83.588399590386317, 28.007672119140661 ], [ 83.603267076280417, 28.008994547526076 ], [ 83.6041666666667, 28.0125 ], [ 83.604736512143404, 28.0125 ], [ 83.6048959, 28.0122795 ], [ 83.6051405, 28.0081677 ], [ 83.6049917, 28.0054356 ], [ 83.6030279, 28.0026509 ], [ 83.60398, 27.999656 ], [ 83.6033757, 27.9973945 ], [ 83.6025816, 27.9962406 ], [ 83.5976642, 27.9922997 ], [ 83.5944186, 27.9899865 ], [ 83.5916914, 27.9886229 ], [ 83.5863774, 27.9881189 ], [ 83.5851657, 27.9878908 ], [ 83.5841191, 27.9870497 ], [ 83.5843164, 27.9856064 ], [ 83.584703314745397, 27.98333333333337 ], [ 83.583333333333371, 27.98333333333337 ] ] ] ] } },
{ "type": "Feature", "properties": { "HYBAS_ID": 4100831520, "NEXT_DOWN": 4100831730, "NEXT_SINK": 4100025450, "MAIN_BAS": 4100025450, "DIST_SINK": 1368.2, "DIST_MAIN": 1368.2, "SUB_AREA": 117.8, "UP_AREA": 117.8, "PFAF_ID": 4524367082, "ENDO": 0, "COAST": 0, "ORDER": 5, "SORT": 69475 }, "geometry": { "type": "MultiPolygon", "coordinates": [ [ [ [ 83.2875, 27.941666666666702 ], [ 83.2875, 27.943701758366831 ], [ 83.2887184, 27.9435609 ], [ 83.29114, 27.9440378 ], [ 83.2935527, 27.9465503 ], [ 83.2933026, 27.9479051 ], [ 83.2917911, 27.9503266 ], [ 83.2936527, 27.9505557 ], [ 83.2953197, 27.9504231 ], [ 83.2964716, 27.9506382 ], [ 83.2973701, 27.950806 ], [ 83.2980035, 27.9524258 ], [ 83.3007291, 27.9531301 ], [ 83.3017376, 27.9544284 ], [ 83.3026564, 27.9558153 ], [ 83.302121, 27.9565635 ], [ 83.3005207, 27.9572703 ], [ 83.3001126, 27.9578004 ], [ 83.298537, 27.959847 ], [ 83.3001873, 27.9614078 ], [ 83.3012653, 27.9641761 ], [ 83.3008541, 27.9650887 ], [ 83.3010708, 27.9659868 ], [ 83.3008208, 27.9664285 ], [ 83.3009889, 27.967082 ], [ 83.3010708, 27.9674002 ], [ 83.300323, 27.9681704 ], [ 83.2992871, 27.9683425 ], [ 83.2981702, 27.9677389 ], [ 83.2967033, 27.9682542 ], [ 83.2961032, 27.9679597 ], [ 83.2950196, 27.9683131 ], [ 83.2923191, 27.9670174 ], [ 83.2909217, 27.9671242 ], [ 83.2897686, 27.9672088 ], [ 83.2889782, 27.9679594 ], [ 83.2878245, 27.9681313 ], [ 83.2869598, 27.9676448 ], [ 83.2860757, 27.9677697 ], [ 83.285062, 27.9683527 ], [ 83.2846612, 27.9683215 ], [ 83.2844609, 27.9674053 ], [ 83.2836239, 27.967624 ], [ 83.283235, 27.9681966 ], [ 83.2810897, 27.9681966 ], [ 83.2806889, 27.9676968 ], [ 83.2799226, 27.9677227 ], [ 83.2777222, 27.969725 ], [ 83.2771554, 27.9727873 ], [ 83.2757669, 27.9737478 ], [ 83.2755328, 27.9739098 ], [ 83.271621, 27.9783817 ], [ 83.2686204, 27.9831514 ], [ 83.26682, 27.9831808 ], [ 83.2654198, 27.9850357 ], [ 83.263386, 27.9858011 ], [ 83.2629685, 27.9893113 ], [ 83.2621641, 27.9897244 ], [ 83.2618049, 27.9887294 ], [ 83.2584832, 27.9880438 ], [ 83.2581252, 27.9871873 ], [ 83.2569821, 27.9867999 ], [ 83.2562893, 27.9872281 ], [ 83.2536503, 27.9860895 ], [ 83.2533136, 27.9866747 ], [ 83.2532075, 27.9873848 ], [ 83.2530801, 27.9874875 ], [ 83.2526644, 27.9871307 ], [ 83.2521564, 27.9871969 ], [ 83.2513135, 27.9899549 ], [ 83.2516368, 27.9920909 ], [ 83.2514809, 27.9933195 ], [ 83.2519717, 27.9948845 ], [ 83.2518249, 27.9956158 ], [ 83.2499598, 27.9957395 ], [ 83.2492786, 27.9964531 ], [ 83.2492153, 27.9968053 ], [ 83.2495235, 27.9978092 ], [ 83.2494171, 27.9978906 ], [ 83.248952, 27.9974379 ], [ 83.2483759, 27.9972921 ], [ 83.2472868, 27.9976511 ], [ 83.2459396, 27.9976948 ], [ 83.2456741, 27.9980129 ], [ 83.2459209, 27.9985112 ], [ 83.2452332, 27.9993177 ], [ 83.2456163, 27.9995044 ], [ 83.2454604, 27.9998256 ], [ 83.244912, 27.9997797 ], [ 83.244352, 28.000004 ], [ 83.2448947, 28.0010438 ], [ 83.243956, 28.0030224 ], [ 83.2441615, 28.003827 ], [ 83.2438035, 28.004301 ], [ 83.2439132, 28.0047241 ], [ 83.2438779, 28.0050631 ], [ 83.2445771, 28.0053561 ], [ 83.2444237, 28.0058922 ], [ 83.2440105, 28.0062426 ], [ 83.2433325, 28.0065089 ], [ 83.2434976, 28.0073848 ], [ 83.2439767, 28.00792 ], [ 83.2441788, 28.0085826 ], [ 83.2436996, 28.0088528 ], [ 83.243516, 28.0086633 ], [ 83.2432915, 28.0084316 ], [ 83.2423718, 28.0085928 ], [ 83.2411305, 28.008919 ], [ 83.2403939, 28.0081409 ], [ 83.2397243, 28.0080941 ], [ 83.2394817, 28.0090839 ], [ 83.2398223, 28.0098433 ], [ 83.2397473, 28.0103224 ], [ 83.2388582, 28.0100625 ], [ 83.238125, 28.0104397 ], [ 83.2388813, 28.01177 ], [ 83.2381193, 28.0119534 ], [ 83.2384945, 28.0140839 ], [ 83.2378498, 28.0143344 ], [ 83.2367585, 28.0152883 ], [ 83.2373647, 28.0157064 ], [ 83.2372851, 28.0160361 ], [ 83.2365144, 28.016086 ], [ 83.2368377, 28.0184508 ], [ 83.2333691, 28.0215683 ], [ 83.2331695, 28.0318344 ], [ 83.232843, 28.0399056 ], [ 83.2311774, 28.0431628 ], [ 83.2306222, 28.046391 ], [ 83.2277483, 28.0508296 ], [ 83.223784, 28.0532777 ], [ 83.219845, 28.05449 ], [ 83.219195279718136, 28.058790090266367 ], [ 83.222575547960105, 28.062146674262188 ], [ 83.225, 28.0625 ], [ 83.227424452039969, 28.062146674262188 ], [ 83.231620279947947, 28.057980007595521 ], [ 83.244091118706635, 28.058686659071217 ], [ 83.247575547960096, 28.062146674262188 ], [ 83.260757785373301, 28.062853325737883 ], [ 83.264242214626762, 28.066313340928854 ], [ 83.275, 28.066666666666684 ], [ 83.275899590386317, 28.063161214192743 ], [ 83.28333333333336, 28.0625 ], [ 83.283686659071208, 28.055908881293437 ], [ 83.287146674262189, 28.052424452039965 ], [ 83.287858072916706, 28.047543165418872 ], [ 83.293408881293431, 28.042019992404548 ], [ 83.298257785373295, 28.041313340928856 ], [ 83.301742214626771, 28.037853325737881 ], [ 83.306591118706635, 28.037146674262189 ], [ 83.318408881293436, 28.025353325737882 ], [ 83.323257785373301, 28.024646674262186 ], [ 83.326742214626762, 28.021186659071216 ], [ 83.331591118706626, 28.02048000759552 ], [ 83.335075547960102, 28.017019992404549 ], [ 83.339957004123292, 28.016308593750036 ], [ 83.345480007595512, 28.010757785373301 ], [ 83.346191406250028, 28.005876498752205 ], [ 83.351742214626768, 28.000353325737883 ], [ 83.356623670789958, 27.999641927083367 ], [ 83.362146674262192, 27.994091118706631 ], [ 83.3625, 27.991666666666703 ], [ 83.360289510091178, 27.991099378797777 ], [ 83.356377156575547, 27.988067287868958 ], [ 83.347789510091175, 27.986932712131111 ], [ 83.343877156575559, 27.983900621202292 ], [ 83.330066257052991, 27.982672119140659 ], [ 83.328599378797776, 27.976956176757845 ], [ 83.32556728786895, 27.973043823242222 ], [ 83.324432712131113, 27.964456176757846 ], [ 83.321400621202287, 27.960543823242222 ], [ 83.320266045464436, 27.94778951009118 ], [ 83.317233954535624, 27.943877156575557 ], [ 83.316666666666706, 27.941666666666702 ], [ 83.306122843424518, 27.941099378797777 ], [ 83.302210489908887, 27.938067287868957 ], [ 83.292881605360279, 27.93693271213111 ], [ 83.2916666666667, 27.941666666666702 ], [ 83.2875, 27.941666666666702 ] ] ] ] } },
{ "type": "Feature", "properties": { "HYBAS_ID": 4100830780, "NEXT_DOWN": 4100831610, "NEXT_SINK": 4100025450, "MAIN_BAS": 4100025450, "DIST_SINK": 1350.4, "DIST_MAIN": 1350.4, "SUB_AREA": 174.0, "UP_AREA": 1999.3, "PFAF_ID": 4524368010, "ENDO": 0, "COAST": 0, "ORDER": 4, "SORT": 69384 }, "geometry": { "type": "MultiPolygon", "coordinates": [ [ [ [ 83.389242214626762, 27.992019992404551 ], [ 83.381591118706623, 27.999646674262188 ], [ 83.37745361328129, 28.000353325737883 ], [ 83.373257785373298, 27.996186659071213 ], [ 83.368408881293433, 27.995480007595521 ], [ 83.364924452039958, 27.992019992404551 ], [ 83.3625, 27.991666666666703 ], [ 83.362146674262192, 27.994091118706631 ], [ 83.356623670789958, 27.999641927083367 ], [ 83.351742214626768, 28.000353325737883 ], [ 83.346191406250028, 28.005876498752205 ], [ 83.345480007595512, 28.010757785373301 ], [ 83.339957004123292, 28.016308593750036 ], [ 83.335075547960102, 28.017019992404549 ], [ 83.331591118706626, 28.02048000759552 ], [ 83.326742214626762, 28.021186659071216 ], [ 83.323257785373301, 28.024646674262186 ], [ 83.318408881293436, 28.025353325737882 ], [ 83.306591118706635, 28.037146674262189 ], [ 83.301742214626771, 28.037853325737881 ], [ 83.298257785373295, 28.041313340928856 ], [ 83.293408881293431, 28.042019992404548 ], [ 83.287858072916706, 28.047543165418872 ], [ 83.287146674262189, 28.052424452039965 ], [ 83.283686659071208, 28.055908881293437 ], [ 83.28333333333336, 28.0625 ], [ 83.283691067165833, 28.06495513916019 ], [ 83.294117228190132, 28.075353325737883 ], [ 83.314924452039961, 28.074646674262187 ], [ 83.318408881293436, 28.071186659071216 ], [ 83.35, 28.070833333333368 ], [ 83.350850762261317, 28.067517598470086 ], [ 83.3541666666667, 28.066666666666702 ], [ 83.355066257052982, 28.070172119140661 ], [ 83.3625, 28.070833333333354 ], [ 83.385757785373301, 28.071186659071216 ], [ 83.389242214626762, 28.074646674262187 ], [ 83.394091118706626, 28.075353325737883 ], [ 83.397575547960102, 28.078813340928853 ], [ 83.419091118706632, 28.079519992404549 ], [ 83.42328694661461, 28.083686659071216 ], [ 83.444091118706638, 28.082980007595523 ], [ 83.447575547960099, 28.079519992404549 ], [ 83.458333333333371, 28.079166666666701 ], [ 83.462103949652814, 28.078198920355938 ], [ 83.466099378797779, 28.073043823242223 ], [ 83.467233954535629, 28.068622843424514 ], [ 83.470266045464442, 28.06471048990889 ], [ 83.471801079644138, 28.058729214138491 ], [ 83.476956176757852, 28.054733954535624 ], [ 83.485543823242224, 28.053599378797777 ], [ 83.489456176757841, 28.050567287868958 ], [ 83.495437282986146, 28.049032253689273 ], [ 83.49943271213111, 28.043877156575554 ], [ 83.500899590386325, 28.038161214192744 ], [ 83.515706719292567, 28.036844041612447 ], [ 83.520266045464439, 28.031377156575555 ], [ 83.521684095594651, 28.025850931803419 ], [ 83.528315904405417, 28.02414906819665 ], [ 83.529166666666697, 28.020833333333368 ], [ 83.525850762261314, 28.019982401529983 ], [ 83.524432712131116, 28.014456176757847 ], [ 83.513067287868964, 28.00221048990889 ], [ 83.511586507161496, 27.996440802680155 ], [ 83.481122843424515, 27.995266045464444 ], [ 83.475603908962711, 27.990663655598993 ], [ 83.475, 27.975 ], [ 83.47083333333336, 27.975 ], [ 83.469618394639795, 27.970266045464445 ], [ 83.450996229383719, 27.971462334526944 ], [ 83.442233954535624, 27.981122843424515 ], [ 83.440698920355942, 27.987104119194914 ], [ 83.435543823242227, 27.991099378797777 ], [ 83.431122843424518, 27.992233954535624 ], [ 83.421770562066001, 28.000567287868957 ], [ 83.418622843424515, 27.99943271213111 ], [ 83.414710489908884, 27.996400621202291 ], [ 83.406122843424512, 27.995266045464444 ], [ 83.402210489908882, 27.992233954535624 ], [ 83.395833333333371, 27.991666666666703 ], [ 83.389242214626762, 27.992019992404551 ] ] ] ] } },
{ "type": "Feature", "properties": { "HYBAS_ID": 4100825660, "NEXT_DOWN": 4100830140, "NEXT_SINK": 4100025450, "MAIN_BAS": 4100025450, "DIST_SINK": 1675.8, "DIST_MAIN": 1675.8, "SUB_AREA": 146.4, "UP_AREA": 296.4, "PFAF_ID": 4524429651, "ENDO": 0, "COAST": 0, "ORDER": 5, "SORT": 70656 }, "geometry": { "type": "MultiPolygon", "coordinates": [ [ [ [ 83.036791653103336, 28.184220716688387 ], [ 83.038208346896738, 28.194945949978319 ], [ 83.043877156575547, 28.196400621202276 ], [ 83.051956176757841, 28.203599378797762 ], [ 83.054166666666703, 28.204166666666687 ], [ 83.055017428927982, 28.200850762261304 ], [ 83.062103949652808, 28.199032253689257 ], [ 83.067233954535624, 28.192413330078146 ], [ 83.066099378797773, 28.189456176757833 ], [ 83.06193271213111, 28.184079996744813 ], [ 83.063067287868961, 28.176956176757834 ], [ 83.066099378797773, 28.173043823242207 ], [ 83.067233954535624, 28.164456176757831 ], [ 83.071400621202287, 28.159079996744811 ], [ 83.070266045464436, 28.156122843424498 ], [ 83.066099378797773, 28.150746663411478 ], [ 83.067233954535624, 28.147789510091165 ], [ 83.07556728786895, 28.138437228732659 ], [ 83.074432712131113, 28.126956176757833 ], [ 83.067233954535624, 28.11887715657554 ], [ 83.066099378797773, 28.114456176757834 ], [ 83.06193271213111, 28.109079996744811 ], [ 83.0620528476217, 28.108766876119173 ], [ 83.0617368, 28.1084113 ], [ 83.0610931, 28.1074271 ], [ 83.0605561, 28.1070289 ], [ 83.0597949, 28.1070013 ], [ 83.0586791, 28.1071337 ], [ 83.0574024, 28.1067552 ], [ 83.0566835, 28.1067552 ], [ 83.0560603, 28.107028 ], [ 83.055042, 28.1080896 ], [ 83.0544412, 28.1089981 ], [ 83.0541408, 28.10967 ], [ 83.0536365, 28.1102472 ], [ 83.0527033, 28.1109966 ], [ 83.0539867, 28.1145755 ], [ 83.0539155, 28.1156601 ], [ 83.0538082, 28.1161521 ], [ 83.0532288, 28.1175053 ], [ 83.0530035, 28.1191045 ], [ 83.0528706, 28.1203796 ], [ 83.0529177, 28.1209497 ], [ 83.054527, 28.1225583 ], [ 83.056469, 28.1242141 ], [ 83.058229, 28.1254755 ], [ 83.0587006, 28.1261349 ], [ 83.0589688, 28.1266364 ], [ 83.0589366, 28.1273933 ], [ 83.0586898, 28.1281124 ], [ 83.0585289, 28.1291532 ], [ 83.058231, 28.129952 ], [ 83.0557287, 28.1325215 ], [ 83.0528533, 28.1345557 ], [ 83.052418, 28.1356383 ], [ 83.0522954, 28.1371196 ], [ 83.0518556, 28.1384347 ], [ 83.0514371, 28.1394708 ], [ 83.0509704, 28.1399058 ], [ 83.0505466, 28.1401234 ], [ 83.0501497, 28.140218 ], [ 83.0496079, 28.1402511 ], [ 83.0494132, 28.1403428 ], [ 83.0494362, 28.1407714 ], [ 83.0495703, 28.14106 ], [ 83.0499306, 28.141474 ], [ 83.0504946, 28.1422828 ], [ 83.0512451, 28.1426834 ], [ 83.0523972, 28.1428129 ], [ 83.0532401, 28.1425506 ], [ 83.0538103, 28.1419986 ], [ 83.0545788, 28.1421134 ], [ 83.0549506, 28.1417582 ], [ 83.0550002, 28.1410368 ], [ 83.0555394, 28.1410149 ], [ 83.055956, 28.1418477 ], [ 83.0556633, 28.142791 ], [ 83.056029, 28.143179 ], [ 83.0566426, 28.143343 ], [ 83.0568301, 28.1442859 ], [ 83.0550395, 28.1448469 ], [ 83.0530455, 28.1477867 ], [ 83.0516679, 28.1491854 ], [ 83.0506766, 28.1501897 ], [ 83.0485994, 28.1522916 ], [ 83.0415313, 28.1546107 ], [ 83.0425945, 28.1561239 ], [ 83.0406794, 28.1555984 ], [ 83.0392377, 28.1558457 ], [ 83.0375811, 28.1567537 ], [ 83.036617, 28.1578162 ], [ 83.0370192, 28.1586862 ], [ 83.0374661, 28.1617415 ], [ 83.0398831, 28.1634353 ], [ 83.0414697, 28.1664294 ], [ 83.0420255, 28.1684786 ], [ 83.0416962, 28.1689265 ], [ 83.0401004, 28.1683856 ], [ 83.0392047, 28.168024 ], [ 83.0382065, 28.1682691 ], [ 83.0378796, 28.1676211 ], [ 83.0376727, 28.1676843 ], [ 83.037202, 28.1675506 ], [ 83.0367345, 28.1678932 ], [ 83.0358785, 28.1680045 ], [ 83.0350245, 28.1682862 ], [ 83.0342041, 28.1682255 ], [ 83.0339584, 28.1690525 ], [ 83.0330829, 28.1691746 ], [ 83.0325334, 28.1706356 ], [ 83.0315328, 28.1710593 ], [ 83.0314395, 28.1716002 ], [ 83.0305803, 28.1718508 ], [ 83.0307635, 28.1726249 ], [ 83.0297148, 28.1736329 ], [ 83.0295186, 28.1747176 ], [ 83.0311678, 28.1754762 ], [ 83.0331642, 28.1756545 ], [ 83.0338557, 28.1790439 ], [ 83.0334803, 28.1804767 ], [ 83.03521, 28.1837483 ], [ 83.035227554746044, 28.183819353968399 ], [ 83.036791653103336, 28.184220716688387 ] ] ], [ [ [ 83.07556728786895, 28.092654758029532 ], [ 83.07547765596351, 28.092072900701979 ], [ 83.073193, 28.0909697 ], [ 83.0669021, 28.096562 ], [ 83.066543463717252, 28.102377448770671 ], [ 83.07556728786895, 28.092654758029532 ] ] ] ] } },
{ "type": "Feature", "properties": { "HYBAS_ID": 4101460780, "NEXT_DOWN": 4100825660, "NEXT_SINK": 4100025450, "MAIN_BAS": 4100025450, "DIST_SINK": 1688.6, "DIST_MAIN": 1688.6, "SUB_AREA": 150.2, "UP_AREA": 150.2, "PFAF_ID": 4524429652, "ENDO": 0, "COAST": 0, "ORDER": 5, "SORT": 70701 }, "geometry": { "type": "MultiPolygon", "coordinates": [ [ [ [ 83.09583333333336, 28.254166666666688 ], [ 83.093408881293428, 28.25381334092884 ], [ 83.089144475677031, 28.249560537922953 ], [ 83.0899538, 28.2517353 ], [ 83.094088, 28.2567129 ], [ 83.095901729289977, 28.256442620821474 ], [ 83.09583333333336, 28.254166666666688 ] ] ], [ [ [ 83.083688015408015, 28.244118923611133 ], [ 83.083333333333371, 28.2375 ], [ 83.079737100069366, 28.237180092611776 ], [ 83.0807946, 28.2408745 ], [ 83.0836795, 28.2446414 ], [ 83.0863739, 28.2472517 ], [ 83.086928580439732, 28.247350671701575 ], [ 83.083688015408015, 28.244118923611133 ] ] ], [ [ [ 83.067321438259583, 28.228193834092902 ], [ 83.066005452473988, 28.213399590386306 ], [ 83.059184095594645, 28.211649237738737 ], [ 83.057482571072086, 28.205017428927974 ], [ 83.054166666666703, 28.204166666666687 ], [ 83.051956176757841, 28.203599378797762 ], [ 83.043877156575547, 28.196400621202276 ], [ 83.038208346896738, 28.194945949978319 ], [ 83.036791653103336, 28.184220716688387 ], [ 83.035227554746044, 28.183819353968399 ], [ 83.0366964, 28.1897646 ], [ 83.0371423, 28.1913087 ], [ 83.0363408, 28.1943999 ], [ 83.0348756, 28.1965811 ], [ 83.0351406, 28.1981897 ], [ 83.0357608, 28.2038618 ], [ 83.0315515, 28.2101443 ], [ 83.0296574, 28.2139391 ], [ 83.0291355, 28.2170103 ], [ 83.0291003, 28.2172175 ], [ 83.02774, 28.2184792 ], [ 83.0265605, 28.2242916 ], [ 83.0277118, 28.2299663 ], [ 83.0282298, 28.2325378 ], [ 83.0273959, 28.2336064 ], [ 83.0271496, 28.2356686 ], [ 83.0267175, 28.2362307 ], [ 83.026063, 28.2355572 ], [ 83.0254312, 28.2355545 ], [ 83.0250016, 28.2361361 ], [ 83.0243176, 28.2360377 ], [ 83.0235895, 28.2355851 ], [ 83.0230773, 28.2348436 ], [ 83.0218548, 28.2348878 ], [ 83.0233426, 28.2368027 ], [ 83.0260566, 28.2389495 ], [ 83.0280451, 28.2398807 ], [ 83.0298551, 28.2411349 ], [ 83.0335806, 28.2408795 ], [ 83.0368544, 28.2401415 ], [ 83.0391198, 28.2404151 ], [ 83.0415857, 28.242131 ], [ 83.0430598, 28.2433352 ], [ 83.0450986, 28.2429647 ], [ 83.0473358, 28.2426655 ], [ 83.0505712, 28.2433881 ], [ 83.0641652, 28.2411431 ], [ 83.0708712, 28.2389269 ], [ 83.0744368, 28.2352051 ], [ 83.074777370823284, 28.234956496654725 ], [ 83.067321438259583, 28.228193834092902 ] ] ] ] } }
]
}
